{"type": "FeatureCollection", "features": [{"type": "Feature", "properties": {"norad_id": 28054, "name": "DMSP 5D-3 F16 (USA 172)", "group": "weather", "lat": -19.244029365224993, "lon": -164.3737836116495, "alt_km": 848.1175213230135, "timestamp": "2025-12-27T05:29:38.836552+00:00", "meta": {"OBJECT_NAME": "DMSP 5D-3 F16 (USA 172)", "OBJECT_ID": "2003-048A", "EPOCH": "2025-12-26T22:04:34.886208", "MEAN_MOTION": 14.14429207, "ECCENTRICITY": 0.00062428, "INCLINATION": 99.0037, "RA_OF_ASC_NODE": 18.4877, "ARG_OF_PERICENTER": 275.2562, "MEAN_ANOMALY": 151.2817, "EPHEMERIS_TYPE": 0, "CLASSIFICATION_TYPE": "U", "NORAD_CAT_ID": 28054, "ELEMENT_SET_NO": 999, "REV_AT_EPOCH": 14513, "BSTAR": 9.6118652e-05, "MEAN_MOTION_DOT": 1.39e-06, "MEAN_MOTION_DDOT": 0}, "tle": {"line1": "1 28054U 03048A   25360.91984822  .00000139  00000+0  96119-4 0  9995", "line2": "2 28054  99.0037  18.4877 0006242 275.2562 151.2817 14.14429207145130"}}, "geometry": {"type": "Point", "coordinates": [-164.3737836116495, -19.244029365224993]}}, {"type": "Feature", "properties": {"norad_id": 28912, "name": "METEOSAT-9 (MSG-2)", "group": "weather", "lat": 2.0655575696597985, "lon": -137.41908385203564, "alt_km": 35915.45157470827, "timestamp": "2025-12-27T05:29:38.836612+00:00", "meta": {"OBJECT_NAME": "METEOSAT-9 (MSG-2)", "OBJECT_ID": "2005-049B", "EPOCH": "2025-12-24T18:27:10.310976", "MEAN_MOTION": 1.00268275, "ECCENTRICITY": 0.00719695, "INCLINATION": 8.9553, "RA_OF_ASC_NODE": 55.846, "ARG_OF_PERICENTER": 282.2974, "MEAN_ANOMALY": 77.0088, "EPHEMERIS_TYPE": 0, "CLASSIFICATION_TYPE": "U", "NORAD_CAT_ID": 28912, "ELEMENT_SET_NO": 999, "REV_AT_EPOCH": 524, "BSTAR": 0, "MEAN_MOTION_DOT": 1.45e-06, "MEAN_MOTION_DDOT": 0}, "tle": {"line1": "1 28912U 05049B   25358.76886934  .00000145  00000+0  00000+0 0  9992", "line2": "2 28912   8.9553  55.8460 0071969 282.2974  77.0088  1.00268275  5240"}}, "geometry": {"type": "Point", "coordinates": [-137.41908385203564, 2.0655575696597985]}}, {"type": "Feature", "properties": {"norad_id": 29522, "name": "DMSP 5D-3 F17 (USA 191)", "group": "weather", "lat": 14.416009884481559, "lon": -171.4176169592073, "alt_km": 836.4769363475998, "timestamp": "2025-12-27T05:29:38.836631+00:00", "meta": {"OBJECT_NAME": "DMSP 5D-3 F17 (USA 191)", "OBJECT_ID": "2006-050A", "EPOCH": "2025-12-26T23:37:25.538304", "MEAN_MOTION": 14.14925768, "ECCENTRICITY": 0.00100328, "INCLINATION": 98.7393, "RA_OF_ASC_NODE": 6.0768, "ARG_OF_PERICENTER": 182.6293, "MEAN_ANOMALY": 177.4829, "EPHEMERIS_TYPE": 0, "CLASSIFICATION_TYPE": "U", "NORAD_CAT_ID": 29522, "ELEMENT_SET_NO": 999, "REV_AT_EPOCH": 98806, "BSTAR": 0.0001275482, "MEAN_MOTION_DOT": 2.03e-06, "MEAN_MOTION_DDOT": 0}, "tle": {"line1": "1 29522U 06050A   25360.98432336  .00000203  00000+0  12755-3 0  9992", "line2": "2 29522  98.7393   6.0768 0010032 182.6293 177.4829 14.14925768988061"}}, "geometry": {"type": "Point", "coordinates": [-171.4176169592073, 14.416009884481559]}}, {"type": "Feature", "properties": {"norad_id": 32958, "name": "FENGYUN 3A", "group": "weather", "lat": 60.23160154038394, "lon": 135.9262347693207, "alt_km": 825.5884667550072, "timestamp": "2025-12-27T05:29:38.836644+00:00", "meta": {"OBJECT_NAME": "FENGYUN 3A", "OBJECT_ID": "2008-026A", "EPOCH": "2025-12-26T20:28:43.261536", "MEAN_MOTION": 14.19518996, "ECCENTRICITY": 0.00076137, "INCLINATION": 98.6714, "RA_OF_ASC_NODE": 300.084, "ARG_OF_PERICENTER": 264.5136, "MEAN_ANOMALY": 95.5172, "EPHEMERIS_TYPE": 0, "CLASSIFICATION_TYPE": "U", "NORAD_CAT_ID": 32958, "ELEMENT_SET_NO": 999, "REV_AT_EPOCH": 91095, "BSTAR": 8.1606007e-05, "MEAN_MOTION_DOT": 1.29e-06, "MEAN_MOTION_DDOT": 0}, "tle": {"line1": "1 32958U 08026A   25360.85327849  .00000129  00000+0  81606-4 0  9991", "line2": "2 32958  98.6714 300.0840 0007613 264.5136  95.5172 14.19518996910959"}}, "geometry": {"type": "Point", "coordinates": [135.9262347693207, 60.23160154038394]}}, {"type": "Feature", "properties": {"norad_id": 35491, "name": "GOES 14", "group": "weather", "lat": -0.5245247620284307, "lon": 59.49753921896161, "alt_km": 35837.72474340775, "timestamp": "2025-12-27T05:29:38.836658+00:00", "meta": {"OBJECT_NAME": "GOES 14", "OBJECT_ID": "2009-033A", "EPOCH": "2025-12-26T22:44:26.774304", "MEAN_MOTION": 1.00097083, "ECCENTRICITY": 7.861e-05, "INCLINATION": 1.2388, "RA_OF_ASC_NODE": 85.255, "ARG_OF_PERICENTER": 194.6495, "MEAN_ANOMALY": 38.1879, "EPHEMERIS_TYPE": 0, "CLASSIFICATION_TYPE": "U", "NORAD_CAT_ID": 35491, "ELEMENT_SET_NO": 999, "REV_AT_EPOCH": 486, "BSTAR": 0, "MEAN_MOTION_DOT": 4.4e-07, "MEAN_MOTION_DDOT": 0}, "tle": {"line1": "1 35491U 09033A   25360.94753211  .00000044  00000+0  00000+0 0  9991", "line2": "2 35491   1.2388  85.2550 0000786 194.6495  38.1879  1.00097083  4862"}}, "geometry": {"type": "Point", "coordinates": [59.49753921896161, -0.5245247620284307]}}, {"type": "Feature", "properties": {"norad_id": 35951, "name": "DMSP 5D-3 F18 (USA 210)", "group": "weather", "lat": 24.741038047751786, "lon": -26.575351690783844, "alt_km": 833.9055629950117, "timestamp": "2025-12-27T05:29:38.836670+00:00", "meta": {"OBJECT_NAME": "DMSP 5D-3 F18 (USA 210)", "OBJECT_ID": "2009-057A", "EPOCH": "2025-12-26T22:35:13.219872", "MEAN_MOTION": 14.14778779, "ECCENTRICITY": 0.00116262, "INCLINATION": 98.8851, "RA_OF_ASC_NODE": 337.272, "ARG_OF_PERICENTER": 25.1311, "MEAN_ANOMALY": 335.0426, "EPHEMERIS_TYPE": 0, "CLASSIFICATION_TYPE": "U", "NORAD_CAT_ID": 35951, "ELEMENT_SET_NO": 999, "REV_AT_EPOCH": 83523, "BSTAR": 0.0001921171, "MEAN_MOTION_DOT": 3.26e-06, "MEAN_MOTION_DDOT": 0}, "tle": {"line1": "1 35951U 09057A   25360.94112523  .00000326  00000+0  19212-3 0  9995", "line2": "2 35951  98.8851 337.2720 0011626  25.1311 335.0426 14.14778779835236"}}, "geometry": {"type": "Point", "coordinates": [-26.575351690783844, 24.741038047751786]}}, {"type": "Feature", "properties": {"norad_id": 36411, "name": "EWS-G2 (GOES 15)", "group": "weather", "lat": 0.3620599504705279, "lon": -120.3113546516421, "alt_km": 35764.70754413925, "timestamp": "2025-12-27T05:29:38.836683+00:00", "meta": {"OBJECT_NAME": "EWS-G2 (GOES 15)", "OBJECT_ID": "2010-008A", "EPOCH": "2025-12-26T20:14:26.686752", "MEAN_MOTION": 1.00271016, "ECCENTRICITY": 0.00056621, "INCLINATION": 0.8465, "RA_OF_ASC_NODE": 86.0633, "ARG_OF_PERICENTER": 179.6684, "MEAN_ANOMALY": 194.8097, "EPHEMERIS_TYPE": 0, "CLASSIFICATION_TYPE": "U", "NORAD_CAT_ID": 36411, "ELEMENT_SET_NO": 999, "REV_AT_EPOCH": 5791, "BSTAR": 0, "MEAN_MOTION_DOT": 6e-07, "MEAN_MOTION_DDOT": 0}, "tle": {"line1": "1 36411U 10008A   25360.84336443  .00000060  00000+0  00000+0 0  9999", "line2": "2 36411   0.8465  86.0633 0005662 179.6684 194.8097  1.00271016 57914"}}, "geometry": {"type": "Point", "coordinates": [-120.3113546516421, 0.3620599504705279]}}, {"type": "Feature", "properties": {"norad_id": 36744, "name": "COMS 1", "group": "weather", "lat": -3.301264942228438, "lon": -53.55025986874252, "alt_km": 35783.61324017256, "timestamp": "2025-12-27T05:29:38.836696+00:00", "meta": {"OBJECT_NAME": "COMS 1", "OBJECT_ID": "2010-032A", "EPOCH": "2025-12-25T12:42:15.782976", "MEAN_MOTION": 1.00270082, "ECCENTRICITY": 8.877e-05, "INCLINATION": 4.3689, "RA_OF_ASC_NODE": 77.8525, "ARG_OF_PERICENTER": 213.8569, "MEAN_ANOMALY": 121.3153, "EPHEMERIS_TYPE": 0, "CLASSIFICATION_TYPE": "U", "NORAD_CAT_ID": 36744, "ELEMENT_SET_NO": 999, "REV_AT_EPOCH": 4934, "BSTAR": 0, "MEAN_MOTION_DOT": -3.24e-06, "MEAN_MOTION_DDOT": 0}, "tle": {"line1": "1 36744U 10032A   25359.52934934 -.00000324  00000+0  00000+0 0  9991", "line2": "2 36744   4.3689  77.8525 0000887 213.8569 121.3153  1.00270082 49343"}}, "geometry": {"type": "Point", "coordinates": [-53.55025986874252, -3.301264942228438]}}, {"type": "Feature", "properties": {"norad_id": 37214, "name": "FENGYUN 3B", "group": "weather", "lat": -9.084860966868774, "lon": 42.75601064160332, "alt_km": 834.310802534922, "timestamp": "2025-12-27T05:29:38.836707+00:00", "meta": {"OBJECT_NAME": "FENGYUN 3B", "OBJECT_ID": "2010-059A", "EPOCH": "2025-12-26T23:18:34.282368", "MEAN_MOTION": 14.14794007, "ECCENTRICITY": 0.00214199, "INCLINATION": 98.9887, "RA_OF_ASC_NODE": 41.0463, "ARG_OF_PERICENTER": 316.7949, "MEAN_ANOMALY": 162.2237, "EPHEMERIS_TYPE": 0, "CLASSIFICATION_TYPE": "U", "NORAD_CAT_ID": 37214, "ELEMENT_SET_NO": 999, "REV_AT_EPOCH": 78307, "BSTAR": 5.5123545e-05, "MEAN_MOTION_DOT": 6.1e-07, "MEAN_MOTION_DDOT": 0}, "tle": {"line1": "1 37214U 10059A   25360.97123012  .00000061  00000+0  55124-4 0  9990", "line2": "2 37214  98.9887  41.0463 0021419 316.7949 162.2237 14.14794007783077"}}, "geometry": {"type": "Point", "coordinates": [42.75601064160332, -9.084860966868774]}}, {"type": "Feature", "properties": {"norad_id": 37849, "name": "SUOMI NPP", "group": "weather", "lat": 74.67340806051368, "lon": -95.88012925477284, "alt_km": 818.0901206622302, "timestamp": "2025-12-27T05:29:38.836718+00:00", "meta": {"OBJECT_NAME": "SUOMI NPP", "OBJECT_ID": "2011-061A", "EPOCH": "2025-12-22T15:10:21.732672", "MEAN_MOTION": 14.19516903, "ECCENTRICITY": 0.00024883, "INCLINATION": 98.7787, "RA_OF_ASC_NODE": 293.8852, "ARG_OF_PERICENTER": 103.0781, "MEAN_ANOMALY": 257.0673, "EPHEMERIS_TYPE": 0, "CLASSIFICATION_TYPE": "U", "NORAD_CAT_ID": 37849, "ELEMENT_SET_NO": 999, "REV_AT_EPOCH": 73339, "BSTAR": 6.3406935e-05, "MEAN_MOTION_DOT": 8.9e-07, "MEAN_MOTION_DDOT": 0}, "tle": {"line1": "1 37849U 11061A   25356.63219598  .00000089  00000+0  63407-4 0  9994", "line2": "2 37849  98.7787 293.8852 0002488 103.0781 257.0673 14.19516903733392"}}, "geometry": {"type": "Point", "coordinates": [-95.88012925477284, 74.67340806051368]}}]}